{
    "week": 295,
    "satellites": [
        {
            "Name": "COSMOS 2485 (747)",
            "Line1": "1 39155U 13019A   24335.33263918 -.00000003  00000+0  00000+0 0  9991",
            "Line2": "2 39155  65.1200  92.5733 0023707 228.3490 131.4295  2.13104401 90263",
            "SatelliteNumber": "39155",
            "Classification": "U",
            "LaunchYear": "13",
            "LaunchNumber": "019",
            "PieceOfLaunch": "A",
            "EpochYear": "24",
            "EpochDay": 335.33263918,
            "FirstDerivativeMeanMotion": -3e-08,
            "SecondDerivativeMeanMotion": "00000+0",
            "BSTAR": "00000+0",
            "SetNumber": "999",
            "Inclination": 65.12,
            "RAAN": 92.5733,
            "Eccentricity": 0.0023707,
            "ArgumentOfPerigee": 228.349,
            "MeanAnomaly": 131.4295,
            "MeanMotion": 2.13104401,
            "RevolutionNumber": "9026"
        },
        {
            "Name": "COSMOS 2492 (754)",
            "Line1": "1 39620U 14012A   24336.69575276 -.00000035  00000+0  00000+0 0  9990",
            "Line2": "2 39620  65.6019 332.9877 0014525 311.0472  48.8485  2.13103220 83252",
            "SatelliteNumber": "39620",
            "Classification": "U",
            "LaunchYear": "14",
            "LaunchNumber": "012",
            "PieceOfLaunch": "A",
            "EpochYear": "24",
            "EpochDay": 336.69575276,
            "FirstDerivativeMeanMotion": -3.5e-07,
            "SecondDerivativeMeanMotion": "00000+0",
            "BSTAR": "00000+0",
            "SetNumber": "999",
            "Inclination": 65.6019,
            "RAAN": 332.9877,
            "Eccentricity": 0.0014525,
            "ArgumentOfPerigee": 311.0472,
            "MeanAnomaly": 48.8485,
            "MeanMotion": 2.1310322,
            "RevolutionNumber": "8325"
        },
        {
            "Name": "COSMOS 2500 (755)",
            "Line1": "1 40001U 14032A   24337.34216658 -.00000033  00000+0  00000+0 0  9994",
            "Line2": "2 40001  65.5384 332.7577 0008323 221.7944 138.1616  2.13105997 81481",
            "SatelliteNumber": "40001",
            "Classification": "U",
            "LaunchYear": "14",
            "LaunchNumber": "032",
            "PieceOfLaunch": "A",
            "EpochYear": "24",
            "EpochDay": 337.34216658,
            "FirstDerivativeMeanMotion": -3.3e-07,
            "SecondDerivativeMeanMotion": "00000+0",
            "BSTAR": "00000+0",
            "SetNumber": "999",
            "Inclination": 65.5384,
            "RAAN": 332.7577,
            "Eccentricity": 0.0008323,
            "ArgumentOfPerigee": 221.7944,
            "MeanAnomaly": 138.1616,
            "MeanMotion": 2.13105997,
            "RevolutionNumber": "8148"
        },
        {
            "Name": "COSMOS 2501 (702K)",
            "Line1": "1 40315U 14075A   24337.12813408  .00000083  00000+0  00000+0 0  9995",
            "Line2": "2 40315  63.6161 209.8440 0019209 204.9920 155.0161  2.13101430 77875",
            "SatelliteNumber": "40315",
            "Classification": "U",
            "LaunchYear": "14",
            "LaunchNumber": "075",
            "PieceOfLaunch": "A",
            "EpochYear": "24",
            "EpochDay": 337.12813408,
            "FirstDerivativeMeanMotion": 8.3e-07,
            "SecondDerivativeMeanMotion": "00000+0",
            "BSTAR": "00000+0",
            "SetNumber": "999",
            "Inclination": 63.6161,
            "RAAN": 209.844,
            "Eccentricity": 0.0019209,
            "ArgumentOfPerigee": 204.992,
            "MeanAnomaly": 155.0161,
            "MeanMotion": 2.1310143,
            "RevolutionNumber": "7787"
        },
        {
            "Name": "COSMOS 2514 (751)",
            "Line1": "1 41330U 16008A   24337.58025822 -.00000032  00000+0  00000+0 0  9991",
            "Line2": "2 41330  65.3318 332.2164 0012389 222.3358 137.5868  2.13102627 68655",
            "SatelliteNumber": "41330",
            "Classification": "U",
            "LaunchYear": "16",
            "LaunchNumber": "008",
            "PieceOfLaunch": "A",
            "EpochYear": "24",
            "EpochDay": 337.58025822,
            "FirstDerivativeMeanMotion": -3.2e-07,
            "SecondDerivativeMeanMotion": "00000+0",
            "BSTAR": "00000+0",
            "SetNumber": "999",
            "Inclination": 65.3318,
            "RAAN": 332.2164,
            "Eccentricity": 0.0012389,
            "ArgumentOfPerigee": 222.3358,
            "MeanAnomaly": 137.5868,
            "MeanMotion": 2.13102627,
            "RevolutionNumber": "6865"
        },
        {
            "Name": "COSMOS 2522 (752)",
            "Line1": "1 42939U 17055A   24336.95079501  .00000082  00000+0  00000+0 0  9997",
            "Line2": "2 42939  64.0774 211.0374 0006305 231.3937 128.6511  2.13102011 55990",
            "SatelliteNumber": "42939",
            "Classification": "U",
            "LaunchYear": "17",
            "LaunchNumber": "055",
            "PieceOfLaunch": "A",
            "EpochYear": "24",
            "EpochDay": 336.95079501,
            "FirstDerivativeMeanMotion": 8.2e-07,
            "SecondDerivativeMeanMotion": "00000+0",
            "BSTAR": "00000+0",
            "SetNumber": "999",
            "Inclination": 64.0774,
            "RAAN": 211.0374,
            "Eccentricity": 0.0006305,
            "ArgumentOfPerigee": 231.3937,
            "MeanAnomaly": 128.6511,
            "MeanMotion": 2.13102011,
            "RevolutionNumber": "5599"
        },
        {
            "Name": "COSMOS 2527 (756)",
            "Line1": "1 43508U 18053A   24336.91018069  .00000008  00000+0  00000+0 0  9995",
            "Line2": "2 43508  65.2801  92.7073 0008538 221.1603 138.7603  2.13102262 50294",
            "SatelliteNumber": "43508",
            "Classification": "U",
            "LaunchYear": "18",
            "LaunchNumber": "053",
            "PieceOfLaunch": "A",
            "EpochYear": "24",
            "EpochDay": 336.91018069,
            "FirstDerivativeMeanMotion": 8e-08,
            "SecondDerivativeMeanMotion": "00000+0",
            "BSTAR": "00000+0",
            "SetNumber": "999",
            "Inclination": 65.2801,
            "RAAN": 92.7073,
            "Eccentricity": 0.0008538,
            "ArgumentOfPerigee": 221.1603,
            "MeanAnomaly": 138.7603,
            "MeanMotion": 2.13102262,
            "RevolutionNumber": "5029"
        },
        {
            "Name": "COSMOS 2529 (757)",
            "Line1": "1 43687U 18086A   24337.00891453  .00000081  00000+0  00000+0 0  9997",
            "Line2": "2 43687  64.2930 211.5933 0007491 260.6646  99.3519  2.13102026 47306",
            "SatelliteNumber": "43687",
            "Classification": "U",
            "LaunchYear": "18",
            "LaunchNumber": "086",
            "PieceOfLaunch": "A",
            "EpochYear": "24",
            "EpochDay": 337.00891453,
            "FirstDerivativeMeanMotion": 8.1e-07,
            "SecondDerivativeMeanMotion": "00000+0",
            "BSTAR": "00000+0",
            "SetNumber": "999",
            "Inclination": 64.293,
            "RAAN": 211.5933,
            "Eccentricity": 0.0007491,
            "ArgumentOfPerigee": 260.6646,
            "MeanAnomaly": 99.3519,
            "MeanMotion": 2.13102026,
            "RevolutionNumber": "4730"
        },
        {
            "Name": "COSMOS 2534 (758)",
            "Line1": "1 44299U 19030A   24337.48586834  .00000080  00000+0  00000+0 0  9992",
            "Line2": "2 44299  64.3660 211.5464 0009696 287.5282 212.6271  2.13102137 42953",
            "SatelliteNumber": "44299",
            "Classification": "U",
            "LaunchYear": "19",
            "LaunchNumber": "030",
            "PieceOfLaunch": "A",
            "EpochYear": "24",
            "EpochDay": 337.48586834,
            "FirstDerivativeMeanMotion": 8e-07,
            "SecondDerivativeMeanMotion": "00000+0",
            "BSTAR": "00000+0",
            "SetNumber": "999",
            "Inclination": 64.366,
            "RAAN": 211.5464,
            "Eccentricity": 0.0009696,
            "ArgumentOfPerigee": 287.5282,
            "MeanAnomaly": 212.6271,
            "MeanMotion": 2.13102137,
            "RevolutionNumber": "4295"
        },
        {
            "Name": "COSMOS 2544 (759)",
            "Line1": "1 44850U 19088A   24336.85437660  .00000007  00000+0  00000+0 0  9999",
            "Line2": "2 44850  65.2671  92.5431 0013028 248.6880 111.1581  2.13102014 38737",
            "SatelliteNumber": "44850",
            "Classification": "U",
            "LaunchYear": "19",
            "LaunchNumber": "088",
            "PieceOfLaunch": "A",
            "EpochYear": "24",
            "EpochDay": 336.8543766,
            "FirstDerivativeMeanMotion": 7e-08,
            "SecondDerivativeMeanMotion": "00000+0",
            "BSTAR": "00000+0",
            "SetNumber": "999",
            "Inclination": 65.2671,
            "RAAN": 92.5431,
            "Eccentricity": 0.0013028,
            "ArgumentOfPerigee": 248.688,
            "MeanAnomaly": 111.1581,
            "MeanMotion": 2.13102014,
            "RevolutionNumber": "3873"
        }
    ]
}